NORAD_CAT_ID,OBJECT_NAME,OBJECT_TYPE,EPOCH,MEAN_MOTION,ECCENTRICITY,INCLINATION,RA_OF_ASC_NODE,ARG_OF_PERICENTER,MEAN_ANOMALY,BSTAR,MEAN_MOTION_DOT,MEAN_MOTION_DDOT,TLE_LINE0,TLE_LINE1,TLE_LINE2,SEMIMAJOR_AXIS,PERIOD,APOGEE,PERIGEE,DECAYED
52659.0,STARLINK-3960,PAYLOAD,2022-12-29 00:13:37,15.08837264,0.0001969,53.2211,351.5481,79.4392,280.6822,-0.00014496,-2.594e-05,0.0,0 STARLINK-3960,1 52659U 22053D   22363.00946457 -.00002594  00000-0 -14496-3 0  9999,2 52659  53.2211 351.5481 0001969  79.4392 280.6822 15.08837264 35100,6917.889,95.438,541.116,538.3919999999998,0.0
52659.0,STARLINK-3960,PAYLOAD,2022-12-29 08:10:33,15.08833474,0.0001564,53.2187,350.0594,57.3723,302.742,-0.00015131,-2.695e-05,0.0,0 STARLINK-3960,1 52659U 22053D   22363.34066978 -.00002695  00000-0 -15131-3 0  9996,2 52659  53.2187 350.0594 0001564  57.3723 302.7420 15.08833474 35159,6917.9,95.438,540.847,538.683,0.0
52659.0,STARLINK-3960,PAYLOAD,2022-12-29 09:45:57,15.08831945,0.0001482,53.2188,349.76199999999994,53.6284,306.4845,-0.00016624,-2.932e-05,0.0,0 STARLINK-3960,1 52659U 22053D   22363.40691079 -.00002932  00000-0 -16624-3 0  9991,2 52659  53.2188 349.7620 0001482  53.6284 306.4845 15.08831945 35158,6917.905,95.438,540.795,538.745,0.0
52659.0,STARLINK-3960,PAYLOAD,2022-12-29 16:07:30,15.08821606,0.0001554999999999,53.2186,348.5726,55.6231,304.4908,-0.0003113,-5.236e-05,0.0,0 STARLINK-3960,1 52659U 22053D   22363.67187802 -.00005236  00000-0 -31130-3 0  9993,2 52659  53.2186 348.5726 0001555  55.6231 304.4908 15.08821606 35202,6917.937,95.439,540.877,538.726,0.0
52659.0,STARLINK-3960,PAYLOAD,2022-12-30 03:15:12,15.08836403,0.0001426,53.2187,346.4899,52.4555,307.6567,-7.4833e-05,-1.479e-05,0.0,0 STARLINK-3960,1 52659U 22053D   22364.13555931 -.00001479  00000-0 -74833-4 0  9990,2 52659  53.2187 346.4899 0001426  52.4555 307.6567 15.08836403 35276,6917.891,95.438,540.743,538.77,0.0
52659.0,STARLINK-3960,PAYLOAD,2022-12-30 08:01:21,15.08840904,0.0001465,53.2191,345.5985,60.9367,299.1772,-3.2125e-05,-7.99e-06,0.0,0 STARLINK-3960,1 52659U 22053D   22364.33427639 -.00000799  00000-0 -32125-4 0  9997,2 52659  53.2191 345.5985 0001465  60.9367 299.1772 15.08840904 35291,6917.878000000002,95.437,540.756,538.729,0.0
52659.0,STARLINK-3960,PAYLOAD,2022-12-30 15:58:16,15.08843377,0.0001473,53.2196,344.1118,56.9783,303.1351,0.0002353,3.459e-05,0.0,0 STARLINK-3960,1 52659U 22053D   22364.66547141  .00003459  00000-0  23530-3 0  9997,2 52659  53.2196 344.1118 0001473  56.9783 303.1351 15.08843377 35358,6917.87,95.437,540.754,538.716,0.0
52659.0,STARLINK-3960,PAYLOAD,2022-12-31 06:16:44,15.08883961,0.0001379,53.2178,341.4362,58.037,302.0756,0.0013609,0.00021463,0.0,0 STARLINK-3960,1 52659U 22053D   22365.26162631  .00021463  00000-0  13609-2 0  9991,2 52659  53.2178 341.4362 0001379  58.0370 302.0756 15.08883961 35449,6917.746,95.435,540.565,538.6569999999998,0.0
52659.0,STARLINK-3960,PAYLOAD,2022-12-31 11:02:53,15.08885578,0.0001445,53.2193,340.5457,58.1266,301.9867,0.0010214,0.00016025,0.0,0 STARLINK-3960,1 52659U 22053D   22365.46034157  .00016025  00000-0  10214-2 0  9991,2 52659  53.2193 340.5457 0001445  58.1266 301.9867 15.08885578 35469,6917.741,95.435,540.606,538.606,0.0
52659.0,STARLINK-3960,PAYLOAD,2022-12-31 15:49:02,15.08869999,0.0001403,53.2179,339.6498,69.5168,290.5974,0.00040894,6.232e-05,0.0,0 STARLINK-3960,1 52659U 22053D   22365.65906101  .00006232  00000-0  40894-3 0  9996,2 52659  53.2179 339.6498 0001403  69.5168 290.5974 15.08869999 35492,6917.7890000000025,95.436,540.624,538.683,0.0
52659.0,STARLINK-3960,PAYLOAD,2023-01-01 04:32:08,15.08838468,0.0001505,53.2177,337.2738,60.8568,299.2575,0.00053209,8.190000000000001e-05,0.0,0 STARLINK-3960,1 52659U 22053D   23001.18898467  .00008190  00000-0  53209-3 0  9996,2 52659  53.2177 337.2738 0001505  60.8568 299.2575 15.08838468 35582,6917.885,95.438,540.7909999999998,538.7090000000002,0.0
52659.0,STARLINK-3960,PAYLOAD,2023-01-01 09:18:18,15.08823946,0.0001503,53.2177,336.3815,60.9378,299.1765,0.00067131,0.00010407,0.0,0 STARLINK-3960,1 52659U 22053D   23001.38770992  .00010407  00000-0  67131-3 0  9993,2 52659  53.2177 336.3815 0001503  60.9378 299.1765 15.08823946 35615,6917.929,95.439,540.8340000000002,538.755,0.0
52659.0,STARLINK-3960,PAYLOAD,2023-01-01 15:39:51,15.08824203,0.0001553,53.2179,335.1921,58.5495,301.5649,0.0010245,0.00016047,0.0,0 STARLINK-3960,1 52659U 22053D   23001.65267400  .00016047  00000-0  10245-2 0  9997,2 52659  53.2179 335.1921 0001553  58.5495 301.5649 15.08824203 35649,6917.929,95.439,540.868,538.719,0.0
52659.0,STARLINK-3960,PAYLOAD,2023-01-02 04:22:57,15.08816468,0.000173,53.2185,332.8137,69.252,290.8658,0.00084152,0.00013122,0.0,0 STARLINK-3960,1 52659U 22053D   23002.18260538  .00013122  00000-0  84152-3 0  9991,2 52659  53.2185 332.8137 0001730  69.2520 290.8658 15.08816468 35738,6917.9519999999975,95.439,541.014,538.621,0.0
52659.0,STARLINK-3960,PAYLOAD,2023-01-03 07:24:30,15.08854417,0.0001592,53.2188,327.7583,69.3001,290.8162,0.0010025,0.00015709,0.0,0 STARLINK-3960,1 52659U 22053D   23003.30868707  .00015709  00000-0  10025-2 0  9998,2 52659  53.2188 327.7583 0001592  69.3001 290.8162 15.08854417 35905,6917.8359999999975,95.437,540.803,538.6,0.0
52659.0,STARLINK-3960,PAYLOAD,2023-01-04 00:53:44,15.0884916,0.0001538,53.2194,324.4872,63.5685,296.5465,0.00041643,6.347e-05,0.0,0 STARLINK-3960,1 52659U 22053D   23004.03732530  .00006347  00000-0  41643-3 0  9992,2 52659  53.2194 324.4872 0001538  63.5685 296.5465 15.08849160 36012,6917.852,95.437,540.781,538.653,0.0
52659.0,STARLINK-3960,PAYLOAD,2023-01-04 13:36:50,15.088446,0.0001847,53.2191,322.1057,52.285,307.8309,0.00010428,1.372e-05,0.0,0 STARLINK-3960,1 52659U 22053D   23004.56724604  .00001372  00000-0  10428-3 0  9993,2 52659  53.2191 322.1057 0001847  52.2850 307.8309 15.08844600 36096,6917.866,95.437,541.009,538.4540000000002,0.0
52659.0,STARLINK-3960,PAYLOAD,2023-01-04 21:33:45,15.08836802,0.0001674,53.2194,320.6203,65.0102,295.1064,3.0551e-05,1.98e-06,0.0,0 STARLINK-3960,1 52659U 22053D   23004.89844871  .00000198  00000-0  30551-4 0  9993,2 52659  53.2194 320.6203 0001674  65.0102 295.1064 15.08836802 36132,6917.89,95.438,540.913,538.597,0.0
52659.0,STARLINK-3960,PAYLOAD,2023-01-05 13:27:36,15.08852061,0.0001652,53.2198,317.6491,64.7772,295.3392,0.00026232,3.891e-05,0.0,0 STARLINK-3960,1 52659U 22053D   23005.56084183  .00003891  00000-0  26232-3 0  9993,2 52659  53.2198 317.6491 0001652  64.7772 295.3392 15.08852061 36238,6917.844,95.437,540.851,538.566,0.0
52659.0,STARLINK-3960,PAYLOAD,2023-01-06 05:21:28,15.08841145,0.000153,53.2202,314.6753,70.7537,289.3621,-1.9741e-05,-6.02e-06,0.0,0 STARLINK-3960,1 52659U 22053D   23006.22324357 -.00000602  00000-0 -19741-4 0  9994,2 52659  53.2202 314.6753 0001530  70.7537 289.3621 15.08841145 36344,6917.877,95.437,540.8,538.683,0.0
52659.0,STARLINK-3960,PAYLOAD,2023-01-06 19:39:57,15.08825967,0.0001284,53.2192,311.9984,60.6838,299.4282,-1.0621e-05,-4.57e-06,0.0,0 STARLINK-3960,1 52659U 22053D   23006.81942001 -.00000457  00000-0 -10621-4 0  9997,2 52659  53.2192 311.9984 0001284  60.6838 299.4282 15.08825967 36435,6917.923000000002,95.438,540.677,538.9,0.0
52659.0,STARLINK-3960,PAYLOAD,2023-01-06 21:15:20,15.08831877,0.0001411,53.2181,311.7016,61.2825,298.8309,7.790299999999999e-06,-1.64e-06,0.0,0 STARLINK-3960,1 52659U 22053D   23006.88565663 -.00000164  00000-0  77903-5 0  9990,2 52659  53.2181 311.7016 0001411  61.2825 298.8309 15.08831877 36432,6917.905,95.438,540.746,538.794,0.0
52659.0,STARLINK-3960,PAYLOAD,2023-01-06 22:50:43,15.08835491,0.0001357,53.2199,311.405,63.944,296.1692,7.6071e-05,9.23e-06,0.0,0 STARLINK-3960,1 52659U 22053D   23006.95189289  .00000923  00000-0  76071-4 0  9990,2 52659  53.2199 311.4050 0001357  63.9440 296.1692 15.08835491 36451,6917.894,95.438,540.698,538.82,0.0
52659.0,STARLINK-3960,PAYLOAD,2023-01-07 19:30:44,15.08825853,0.0001136,53.2188,307.5370000000001,51.5001,308.6093,-2.508e-05,-6.87e-06,0.0,0 STARLINK-3960,1 52659U 22053D   23007.81302005 -.00000687  00000-0 -25080-4 0  9992,2 52659  53.2188 307.5370 0001136  51.5001 308.6093 15.08825853 36580,6917.924,95.438,540.575,539.003,0.0
52659.0,STARLINK-3960,PAYLOAD,2023-01-08 01:52:17,15.08832522,0.0001227,53.2192,306.3484,75.7718,284.3411,1.3664000000000003e-05,-7e-07,0.0,0 STARLINK-3960,1 52659U 22053D   23008.07797536 -.00000070  00000-0  13664-4 0  9998,2 52659  53.2192 306.3484 0001227  75.7718 284.3411 15.08832522 36622,6917.903,95.438,540.617,538.919,0.0
52659.0,STARLINK-3960,PAYLOAD,2023-01-08 12:59:58,15.08839961,0.0001371,53.2191,304.2679,65.6581,294.4554,0.00019017,2.7399999999999995e-05,0.0,0 STARLINK-3960,1 52659U 22053D   23008.54164790  .00002740  00000-0  19017-3 0  9992,2 52659  53.2191 304.2679 0001371  65.6581 294.4554 15.08839961 36680,6917.880999999999,95.438,540.694,538.797,0.0
52659.0,STARLINK-3960,PAYLOAD,2023-01-08 19:21:30,15.08844439,0.0001501,53.2191,303.0797,65.4227,294.6921,0.00013276,1.826e-05,0.0,0 STARLINK-3960,1 52659U 22053D   23008.80660761  .00001826  00000-0  13276-3 0  9995,2 52659  53.2191 303.0797 0001501  65.4227 294.6921 15.08844439 36730,6917.866999999998,95.437,540.77,538.693,0.0
52659.0,STARLINK-3960,PAYLOAD,2023-01-09 12:50:45,15.08845578,0.0001419999999999,53.2192,299.8082,74.5616,285.5533,2.4779e-05,1.06e-06,0.0,0 STARLINK-3960,1 52659U 22053D   23009.53524906  .00000106  00000-0  24779-4 0  9997,2 52659  53.2192 299.8082 0001420  74.5616 285.5533 15.08845578 36837,6917.863,95.437,540.711,538.746,0.0
52659.0,STARLINK-3960,PAYLOAD,2023-01-10 04:44:36,15.08850003,0.000158,53.2197,296.8339,73.8296,286.2870000000001,0.00017155,2.444e-05,0.0,0 STARLINK-3960,1 52659U 22053D   23010.19764010  .00002444  00000-0  17155-3 0  9999,2 52659  53.2197 296.8339 0001580  73.8296 286.2870 15.08850003 36940,6917.85,95.437,540.808,538.622,0.0
